STARLINK-36783          
1 67873U 26034Z   26062.58336806 -.00002061  00000+0 -69040-5 0  9995
2 67873  53.1583 241.7530 0000800  70.1083 297.2857 15.80886338  2885
STARLINK-36730          
1 67874U 26034AA  26062.58336806 -.00032523  00000+0 -16176-3 0  9992
2 67874  53.1583 241.7446 0001011  63.4799 308.2088 15.80886051  2887
STARLINK-36727          
1 67875U 26034AB  26062.58336806  .00020240  00000+0  10584-3 0  9991
2 67875  53.1568 241.7355 0000667  72.7287 303.2128 15.80871942  2884
STARLINK-36743          
1 67876U 26034AC  26062.58336806  .00062699  00000+0  31896-3 0  9995
2 67876  53.1587 241.7261 0001049  96.0970 284.1028 15.80868666  2880
STARLINK-36784          
1 67877U 26034AD  26062.58336806  .00014205  00000+0  75334-4 0  9992
2 67877  53.1569 241.7176 0001081  79.5002 304.9745 15.80889329  2880
STARLINK-36689          
1 67878U 26034AE  26062.58336806 -.00066584  00000+0 -33566-3 0  9992
2 67878  53.1569 241.7093 0000995  98.2745 290.4655 15.80920728  2882
STARLINK-36818          
1 67879U 26035A   26062.58336806 -.00860977  24903-3 -16770-2 0  9991
2 67879  97.2788 354.4338 0001232  97.5957 343.6113 16.00267373  2772
STARLINK-36821          
1 67880U 26035B   26062.58336806 -.00864211  25130-3 -16656-2 0  9994
2 67880  97.2784 354.4365 0001141  95.2126 351.8005 16.00453094  2770
STARLINK-36808          
1 67881U 26035C   26062.58336806 -.00858792  24805-3 -16660-2 0  9995
2 67881  97.2784 354.4347 0001286 107.8304 335.5546 16.00337486  2774
STARLINK-36817          
1 67882U 26035D   26062.58336806 -.00867742  25385-3 -16516-2 0  9995
2 67882  97.2776 354.4392 0001155  90.1991   3.9095 16.00673830  2778
STARLINK-36856          
1 67883U 26035E   26062.58336806 -.00864727  25191-3 -16558-2 0  9997
2 67883  97.2781 354.4378 0001197  98.5258 352.2852 16.00567808  2771
STARLINK-36842          
1 67884U 26035F   26062.58336806 -.00872072  25651-3 -16502-2 0  9990
2 67884  97.2777 354.4403 0001109  95.6731   1.5004 16.00776963  2770
