CCSDS_OMM_VERS = 2.0
CREATION_DATE  = 
ORIGINATOR     = 

OBJECT_NAME    = STARLINK-36783
OBJECT_ID      = 2026-034Z
CENTER_NAME    = EARTH
REF_FRAME      = TEME
TIME_SYSTEM    = UTC
MEAN_ELEMENT_THEORY = SGP/SGP4

EPOCH          = 2026-03-03T14:00:03.000384
MEAN_MOTION    = 15.80886338
ECCENTRICITY   = .00008
INCLINATION    = 53.1583
RA_OF_ASC_NODE = 241.7530
ARG_OF_PERICENTER = 70.1083
MEAN_ANOMALY   = 297.2857

EPHEMERIS_TYPE = 0
CLASSIFICATION_TYPE = U
NORAD_CAT_ID   = 67873
ELEMENT_SET_NO = 999
REV_AT_EPOCH   = 288
BSTAR          = -.6904E-5
MEAN_MOTION_DOT = -.2061E-4
MEAN_MOTION_DDOT = 0

CCSDS_OMM_VERS = 2.0
CREATION_DATE  = 
ORIGINATOR     = 

OBJECT_NAME    = STARLINK-36730
OBJECT_ID      = 2026-034AA
CENTER_NAME    = EARTH
REF_FRAME      = TEME
TIME_SYSTEM    = UTC
MEAN_ELEMENT_THEORY = SGP/SGP4

EPOCH          = 2026-03-03T14:00:03.000384
MEAN_MOTION    = 15.80886051
ECCENTRICITY   = .0001011
INCLINATION    = 53.1583
RA_OF_ASC_NODE = 241.7446
ARG_OF_PERICENTER = 63.4799
MEAN_ANOMALY   = 308.2088

EPHEMERIS_TYPE = 0
CLASSIFICATION_TYPE = U
NORAD_CAT_ID   = 67874
ELEMENT_SET_NO = 999
REV_AT_EPOCH   = 288
BSTAR          = -.16176E-3
MEAN_MOTION_DOT = -.32523E-3
MEAN_MOTION_DDOT = 0

CCSDS_OMM_VERS = 2.0
CREATION_DATE  = 
ORIGINATOR     = 

OBJECT_NAME    = STARLINK-36727
OBJECT_ID      = 2026-034AB
CENTER_NAME    = EARTH
REF_FRAME      = TEME
TIME_SYSTEM    = UTC
MEAN_ELEMENT_THEORY = SGP/SGP4

EPOCH          = 2026-03-03T14:00:03.000384
MEAN_MOTION    = 15.80871942
ECCENTRICITY   = .0000667
INCLINATION    = 53.1568
RA_OF_ASC_NODE = 241.7355
ARG_OF_PERICENTER = 72.7287
MEAN_ANOMALY   = 303.2128

EPHEMERIS_TYPE = 0
CLASSIFICATION_TYPE = U
NORAD_CAT_ID   = 67875
ELEMENT_SET_NO = 999
REV_AT_EPOCH   = 288
BSTAR          = .10584E-3
MEAN_MOTION_DOT = .2024E-3
MEAN_MOTION_DDOT = 0

CCSDS_OMM_VERS = 2.0
CREATION_DATE  = 
ORIGINATOR     = 

OBJECT_NAME    = STARLINK-36743
OBJECT_ID      = 2026-034AC
CENTER_NAME    = EARTH
REF_FRAME      = TEME
TIME_SYSTEM    = UTC
MEAN_ELEMENT_THEORY = SGP/SGP4

EPOCH          = 2026-03-03T14:00:03.000384
MEAN_MOTION    = 15.80868666
ECCENTRICITY   = .0001049
INCLINATION    = 53.1587
RA_OF_ASC_NODE = 241.7261
ARG_OF_PERICENTER = 96.0970
MEAN_ANOMALY   = 284.1028

EPHEMERIS_TYPE = 0
CLASSIFICATION_TYPE = U
NORAD_CAT_ID   = 67876
ELEMENT_SET_NO = 999
REV_AT_EPOCH   = 288
BSTAR          = .31896E-3
MEAN_MOTION_DOT = .62699E-3
MEAN_MOTION_DDOT = 0

CCSDS_OMM_VERS = 2.0
CREATION_DATE  = 
ORIGINATOR     = 

OBJECT_NAME    = STARLINK-36784
OBJECT_ID      = 2026-034AD
CENTER_NAME    = EARTH
REF_FRAME      = TEME
TIME_SYSTEM    = UTC
MEAN_ELEMENT_THEORY = SGP/SGP4

EPOCH          = 2026-03-03T14:00:03.000384
MEAN_MOTION    = 15.80889329
ECCENTRICITY   = .0001081
INCLINATION    = 53.1569
RA_OF_ASC_NODE = 241.7176
ARG_OF_PERICENTER = 79.5002
MEAN_ANOMALY   = 304.9745

EPHEMERIS_TYPE = 0
CLASSIFICATION_TYPE = U
NORAD_CAT_ID   = 67877
ELEMENT_SET_NO = 999
REV_AT_EPOCH   = 288
BSTAR          = .75334E-4
MEAN_MOTION_DOT = .14205E-3
MEAN_MOTION_DDOT = 0

CCSDS_OMM_VERS = 2.0
CREATION_DATE  = 
ORIGINATOR     = 

OBJECT_NAME    = STARLINK-36689
OBJECT_ID      = 2026-034AE
CENTER_NAME    = EARTH
REF_FRAME      = TEME
TIME_SYSTEM    = UTC
MEAN_ELEMENT_THEORY = SGP/SGP4

EPOCH          = 2026-03-03T14:00:03.000384
MEAN_MOTION    = 15.80920728
ECCENTRICITY   = .0000995
INCLINATION    = 53.1569
RA_OF_ASC_NODE = 241.7093
ARG_OF_PERICENTER = 98.2745
MEAN_ANOMALY   = 290.4655

EPHEMERIS_TYPE = 0
CLASSIFICATION_TYPE = U
NORAD_CAT_ID   = 67878
ELEMENT_SET_NO = 999
REV_AT_EPOCH   = 288
BSTAR          = -.33566E-3
MEAN_MOTION_DOT = -.66584E-3
MEAN_MOTION_DDOT = 0

CCSDS_OMM_VERS = 2.0
CREATION_DATE  = 
ORIGINATOR     = 

OBJECT_NAME    = STARLINK-36818
OBJECT_ID      = 2026-035A
CENTER_NAME    = EARTH
REF_FRAME      = TEME
TIME_SYSTEM    = UTC
MEAN_ELEMENT_THEORY = SGP/SGP4

EPOCH          = 2026-03-03T14:00:03.000384
MEAN_MOTION    = 16.00267373
ECCENTRICITY   = .0001232
INCLINATION    = 97.2788
RA_OF_ASC_NODE = 354.4338
ARG_OF_PERICENTER = 97.5957
MEAN_ANOMALY   = 343.6113

EPHEMERIS_TYPE = 0
CLASSIFICATION_TYPE = U
NORAD_CAT_ID   = 67879
ELEMENT_SET_NO = 999
REV_AT_EPOCH   = 277
BSTAR          = -.1677E-2
MEAN_MOTION_DOT = -.860977E-2
MEAN_MOTION_DDOT = .24903E-3

CCSDS_OMM_VERS = 2.0
CREATION_DATE  = 
ORIGINATOR     = 

OBJECT_NAME    = STARLINK-36821
OBJECT_ID      = 2026-035B
CENTER_NAME    = EARTH
REF_FRAME      = TEME
TIME_SYSTEM    = UTC
MEAN_ELEMENT_THEORY = SGP/SGP4

EPOCH          = 2026-03-03T14:00:03.000384
MEAN_MOTION    = 16.00453094
ECCENTRICITY   = .0001141
INCLINATION    = 97.2784
RA_OF_ASC_NODE = 354.4365
ARG_OF_PERICENTER = 95.2126
MEAN_ANOMALY   = 351.8005

EPHEMERIS_TYPE = 0
CLASSIFICATION_TYPE = U
NORAD_CAT_ID   = 67880
ELEMENT_SET_NO = 999
REV_AT_EPOCH   = 277
BSTAR          = -.16656E-2
MEAN_MOTION_DOT = -.864211E-2
MEAN_MOTION_DDOT = .2513E-3

CCSDS_OMM_VERS = 2.0
CREATION_DATE  = 
ORIGINATOR     = 

OBJECT_NAME    = STARLINK-36808
OBJECT_ID      = 2026-035C
CENTER_NAME    = EARTH
REF_FRAME      = TEME
TIME_SYSTEM    = UTC
MEAN_ELEMENT_THEORY = SGP/SGP4

EPOCH          = 2026-03-03T14:00:03.000384
MEAN_MOTION    = 16.00337486
ECCENTRICITY   = .0001286
INCLINATION    = 97.2784
RA_OF_ASC_NODE = 354.4347
ARG_OF_PERICENTER = 107.8304
MEAN_ANOMALY   = 335.5546

EPHEMERIS_TYPE = 0
CLASSIFICATION_TYPE = U
NORAD_CAT_ID   = 67881
ELEMENT_SET_NO = 999
REV_AT_EPOCH   = 277
BSTAR          = -.1666E-2
MEAN_MOTION_DOT = -.858792E-2
MEAN_MOTION_DDOT = .24805E-3

CCSDS_OMM_VERS = 2.0
CREATION_DATE  = 
ORIGINATOR     = 

OBJECT_NAME    = STARLINK-36817
OBJECT_ID      = 2026-035D
CENTER_NAME    = EARTH
REF_FRAME      = TEME
TIME_SYSTEM    = UTC
MEAN_ELEMENT_THEORY = SGP/SGP4

EPOCH          = 2026-03-03T14:00:03.000384
MEAN_MOTION    = 16.00673830
ECCENTRICITY   = .0001155
INCLINATION    = 97.2776
RA_OF_ASC_NODE = 354.4392
ARG_OF_PERICENTER = 90.1991
MEAN_ANOMALY   = 3.9095

EPHEMERIS_TYPE = 0
CLASSIFICATION_TYPE = U
NORAD_CAT_ID   = 67882
ELEMENT_SET_NO = 999
REV_AT_EPOCH   = 277
BSTAR          = -.16516E-2
MEAN_MOTION_DOT = -.867742E-2
MEAN_MOTION_DDOT = .25385E-3

CCSDS_OMM_VERS = 2.0
CREATION_DATE  = 
ORIGINATOR     = 

OBJECT_NAME    = STARLINK-36856
OBJECT_ID      = 2026-035E
CENTER_NAME    = EARTH
REF_FRAME      = TEME
TIME_SYSTEM    = UTC
MEAN_ELEMENT_THEORY = SGP/SGP4

EPOCH          = 2026-03-03T14:00:03.000384
MEAN_MOTION    = 16.00567808
ECCENTRICITY   = .0001197
INCLINATION    = 97.2781
RA_OF_ASC_NODE = 354.4378
ARG_OF_PERICENTER = 98.5258
MEAN_ANOMALY   = 352.2852

EPHEMERIS_TYPE = 0
CLASSIFICATION_TYPE = U
NORAD_CAT_ID   = 67883
ELEMENT_SET_NO = 999
REV_AT_EPOCH   = 277
BSTAR          = -.16558E-2
MEAN_MOTION_DOT = -.864727E-2
MEAN_MOTION_DDOT = .25191E-3

CCSDS_OMM_VERS = 2.0
CREATION_DATE  = 
ORIGINATOR     = 

OBJECT_NAME    = STARLINK-36842
OBJECT_ID      = 2026-035F
CENTER_NAME    = EARTH
REF_FRAME      = TEME
TIME_SYSTEM    = UTC
MEAN_ELEMENT_THEORY = SGP/SGP4

EPOCH          = 2026-03-03T14:00:03.000384
MEAN_MOTION    = 16.00776963
ECCENTRICITY   = .0001109
INCLINATION    = 97.2777
RA_OF_ASC_NODE = 354.4403
ARG_OF_PERICENTER = 95.6731
MEAN_ANOMALY   = 1.5004

EPHEMERIS_TYPE = 0
CLASSIFICATION_TYPE = U
NORAD_CAT_ID   = 67884
ELEMENT_SET_NO = 999
REV_AT_EPOCH   = 277
BSTAR          = -.16502E-2
MEAN_MOTION_DOT = -.872072E-2
MEAN_MOTION_DDOT = .25651E-3

